[{"OBJECT_NAME":"STARLINK-1231","OBJECT_ID":"2020-012AL","EPOCH":"2026-03-09T22:37:47.053344","MEAN_MOTION":15.21109103,"ECCENTRICITY":0.00044424,"INCLINATION":53.0512,"RA_OF_ASC_NODE":14.6305,"ARG_OF_PERICENTER":85.7688,"MEAN_ANOMALY":274.3815,"EPHEMERIS_TYPE":0,"CLASSIFICATION_TYPE":"U","NORAD_CAT_ID":45212,"ELEMENT_SET_NO":999,"REV_AT_EPOCH":33526,"BSTAR":0.0021253625,"MEAN_MOTION_DOT":0.00047876,"MEAN_MOTION_DDOT":0},{"OBJECT_NAME":"STARLINK-1557","OBJECT_ID":"2020-055H","EPOCH":"2026-03-10T00:00:02.999808","MEAN_MOTION":15.2035016,"ECCENTRICITY":0.0001718,"INCLINATION":53.1122,"RA_OF_ASC_NODE":124.7429,"ARG_OF_PERICENTER":94.4179,"MEAN_ANOMALY":143.9555,"EPHEMERIS_TYPE":0,"CLASSIFICATION_TYPE":"U","NORAD_CAT_ID":46034,"ELEMENT_SET_NO":999,"REV_AT_EPOCH":578,"BSTAR":0.0055116646,"MEAN_MOTION_DOT":0.00123185,"MEAN_MOTION_DDOT":0}]
